{"type": "FeatureCollection", "features": [ {"type": "Feature", "properties": {"norad_id": 34784, "name": "COSMOS 2251 DEB", "group": "cosmos-2251-debris", "lat": 70.88383238043203, "lon": 101.82440160098369, "alt_km": 660.2439694439317, "timestamp": "2025-12-05T18:53:13.676855+00:00", "meta": {"OBJECT_NAME": "COSMOS 2251 DEB", "OBJECT_ID": "1993-036AAM", "EPOCH": "2025-12-05T06:55:19.113024", "MEAN_MOTION": 14.60726382, "ECCENTRICITY": 0.00496845, "INCLINATION": 74.0071, "RA_OF_ASC_NODE": 338.6185, "ARG_OF_PERICENTER": 150.1681, "MEAN_ANOMALY": 210.2334, "EPHEMERIS_TYPE": 0, "CLASSIFICATION_TYPE": "U", "NORAD_CAT_ID": 34784, "ELEMENT_SET_NO": 999, "REV_AT_EPOCH": 88426, "BSTAR": 0.00090675819, "MEAN_MOTION_DOT": 4.471e-05, "MEAN_MOTION_DDOT": 0}, "tle": {"line1": "1 34784U 93036AAM 25339.28841566  .00004471  00000+0  90676-3 0  9995", "line2": "2 34784  74.0071 338.6185 0049684 150.1681 210.2334 14.60726382884266"}}, "geometry": {"type": "Point", "coordinates": [101.82440160098369, 70.88383238043203]}}, {"type": "Feature", "properties": {"norad_id": 34790, "name": "COSMOS 2251 DEB", "group": "cosmos-2251-debris", "lat": 49.38431705459701, "lon": -84.30312940882952, "alt_km": 808.059493567027, "timestamp": "2025-12-05T18:53:13.676865+00:00", "meta": {"OBJECT_NAME": "COSMOS 2251 DEB", "OBJECT_ID": "1993-036AAT", "EPOCH": "2025-12-05T05:53:13.029216", "MEAN_MOTION": 14.2459098, "ECCENTRICITY": 0.01007233, "INCLINATION": 74.0562, "RA_OF_ASC_NODE": 257.1998, "ARG_OF_PERICENTER": 320.3203, "MEAN_ANOMALY": 193.8422, "EPHEMERIS_TYPE": 0, "CLASSIFICATION_TYPE": "U", "NORAD_CAT_ID": 34790, "ELEMENT_SET_NO": 999, "REV_AT_EPOCH": 86466, "BSTAR": 0.0017398568, "MEAN_MOTION_DOT": 4.235e-05, "MEAN_MOTION_DDOT": 0}, "tle": {"line1": "1 34790U 93036AAT 25339.24528969  .00004235  00000+0  17399-2 0  9995", "line2": "2 34790  74.0562 257.1998 0100723 320.3203 193.8422 14.24590980864667"}}, "geometry": {"type": "Point", "coordinates": [-84.30312940882952, 49.38431705459701]}}, {"type": "Feature", "properties": {"norad_id": 34792, "name": "COSMOS 2251 DEB", "group": "cosmos-2251-debris", "lat": -59.255427622964625, "lon": 154.09802003037242, "alt_km": 704.9319609618915, "timestamp": "2025-12-05T18:53:13.676875+00:00", "meta": {"OBJECT_NAME": "COSMOS 2251 DEB", "OBJECT_ID": "1993-036AAV", "EPOCH": "2025-12-04T17:20:04.670592", "MEAN_MOTION": 14.5585623, "ECCENTRICITY": 0.0012597, "INCLINATION": 74.0173, "RA_OF_ASC_NODE": 184.9238, "ARG_OF_PERICENTER": 278.5537, "MEAN_ANOMALY": 200.1967, "EPHEMERIS_TYPE": 0, "CLASSIFICATION_TYPE": "U", "NORAD_CAT_ID": 34792, "ELEMENT_SET_NO": 999, "REV_AT_EPOCH": 87533, "BSTAR": 0.0019867, "MEAN_MOTION_DOT": 8.707e-05, "MEAN_MOTION_DDOT": 0}, "tle": {"line1": "1 34792U 93036AAV 25338.72227628  .00008707  00000+0  19867-2 0  9997", "line2": "2 34792  74.0173 184.9238 0012597 278.5537 200.1967 14.55856230875335"}}, "geometry": {"type": "Point", "coordinates": [154.09802003037242, -59.255427622964625]}}, {"type": "Feature", "properties": {"norad_id": 34793, "name": "COSMOS 2251 DEB", "group": "cosmos-2251-debris", "lat": 30.77026404901414, "lon": 73.3765956080695, "alt_km": 759.9388222351981, "timestamp": "2025-12-05T18:53:13.676885+00:00", "meta": {"OBJECT_NAME": "COSMOS 2251 DEB", "OBJECT_ID": "1993-036AAW", "EPOCH": "2025-12-05T05:36:19.731744", "MEAN_MOTION": 14.38624486, "ECCENTRICITY": 0.00500177, "INCLINATION": 74.0028, "RA_OF_ASC_NODE": 264.2336, "ARG_OF_PERICENTER": 60.3524, "MEAN_ANOMALY": 101.8803, "EPHEMERIS_TYPE": 0, "CLASSIFICATION_TYPE": "U", "NORAD_CAT_ID": 34793, "ELEMENT_SET_NO": 999, "REV_AT_EPOCH": 87222, "BSTAR": 0.00049618867, "MEAN_MOTION_DOT": 1.516e-05, "MEAN_MOTION_DDOT": 0}, "tle": {"line1": "1 34793U 93036AAW 25339.23356171  .00001516  00000+0  49619-3 0  9991", "line2": "2 34793  74.0028 264.2336 0050017  60.3524 101.8803 14.38624486872226"}}, "geometry": {"type": "Point", "coordinates": [73.3765956080695, 30.77026404901414]}}, {"type": "Feature", "properties": {"norad_id": 34796, "name": "COSMOS 2251 DEB", "group": "cosmos-2251-debris", "lat": -8.896729016116693, "lon": -133.18973559018818, "alt_km": 666.0334847935128, "timestamp": "2025-12-05T18:53:13.676895+00:00", "meta": {"OBJECT_NAME": "COSMOS 2251 DEB", "OBJECT_ID": "1993-036AAZ", "EPOCH": "2025-12-04T16:32:19.644000", "MEAN_MOTION": 14.48622795, "ECCENTRICITY": 0.0100109, "INCLINATION": 74.0308, "RA_OF_ASC_NODE": 231.4366, "ARG_OF_PERICENTER": 335.2768, "MEAN_ANOMALY": 52.2124, "EPHEMERIS_TYPE": 0, "CLASSIFICATION_TYPE": "U", "NORAD_CAT_ID": 34796, "ELEMENT_SET_NO": 999, "REV_AT_EPOCH": 87911, "BSTAR": 0.0015827, "MEAN_MOTION_DOT": 6.321e-05, "MEAN_MOTION_DDOT": 0}, "tle": {"line1": "1 34796U 93036AAZ 25338.68911625  .00006321  00000+0  15827-2 0  9995", "line2": "2 34796  74.0308 231.4366 0100109 335.2768  52.2124 14.48622795879113"}}, "geometry": {"type": "Point", "coordinates": [-133.18973559018818, -8.896729016116693]}}, {"type": "Feature", "properties": {"norad_id": 34797, "name": "COSMOS 2251 DEB", "group": "cosmos-2251-debris", "lat": -72.29915056476614, "lon": -2.847858245005481, "alt_km": 714.4992699752565, "timestamp": "2025-12-05T18:53:13.676905+00:00", "meta": {"OBJECT_NAME": "COSMOS 2251 DEB", "OBJECT_ID": "1993-036ABA", "EPOCH": "2025-12-02T16:26:28.609440", "MEAN_MOTION": 14.42535201, "ECCENTRICITY": 0.00725247, "INCLINATION": 73.9763, "RA_OF_ASC_NODE": 118.7115, "ARG_OF_PERICENTER": 233.7261, "MEAN_ANOMALY": 125.7182, "EPHEMERIS_TYPE": 0, "CLASSIFICATION_TYPE": "U", "NORAD_CAT_ID": 34797, "ELEMENT_SET_NO": 999, "REV_AT_EPOCH": 87270, "BSTAR": 0.0028458232, "MEAN_MOTION_DOT": 9.728e-05, "MEAN_MOTION_DDOT": 0}, "tle": {"line1": "1 34797U 93036ABA 25336.68505335  .00009728  00000+0  28458-2 0  9999", "line2": "2 34797  73.9763 118.7115 0072524 233.7261 125.7182 14.42535201872702"}}, "geometry": {"type": "Point", "coordinates": [-2.847858245005481, -72.29915056476614]}}, {"type": "Feature", "properties": {"norad_id": 34814, "name": "COSMOS 2251 DEB", "group": "cosmos-2251-debris", "lat": 30.421154174875046, "lon": -11.89781540426012, "alt_km": 805.8244856175943, "timestamp": "2025-12-05T18:53:13.676914+00:00", "meta": {"OBJECT_NAME": "COSMOS 2251 DEB", "OBJECT_ID": "1993-036ABD", "EPOCH": "2025-12-02T11:13:46.501248", "MEAN_MOTION": 14.36815971, "ECCENTRICITY": 0.00568423, "INCLINATION": 73.8957, "RA_OF_ASC_NODE": 344.4866, "ARG_OF_PERICENTER": 235.7348, "MEAN_ANOMALY": 274.6986, "EPHEMERIS_TYPE": 0, "CLASSIFICATION_TYPE": "U", "NORAD_CAT_ID": 34814, "ELEMENT_SET_NO": 999, "REV_AT_EPOCH": 87185, "BSTAR": 0.0010643945, "MEAN_MOTION_DOT": 3.176e-05, "MEAN_MOTION_DDOT": 0}, "tle": {"line1": "1 34814U 93036ABD 25336.46789932  .00003176  00000+0  10644-2 0  9991", "line2": "2 34814  73.8957 344.4866 0056842 235.7348 274.6986 14.36815971871859"}}, "geometry": {"type": "Point", "coordinates": [-11.89781540426012, 30.421154174875046]}}, {"type": "Feature", "properties": {"norad_id": 34815, "name": "COSMOS 2251 DEB", "group": "cosmos-2251-debris", "lat": -49.45914001469747, "lon": 94.99006486204445, "alt_km": 644.2483086616276, "timestamp": "2025-12-05T18:53:13.676924+00:00", "meta": {"OBJECT_NAME": "COSMOS 2251 DEB", "OBJECT_ID": "1993-036ABE", "EPOCH": "2025-12-05T04:50:27.332736", "MEAN_MOTION": 14.78146194, "ECCENTRICITY": 0.00589863, "INCLINATION": 74.0462, "RA_OF_ASC_NODE": 256.5989, "ARG_OF_PERICENTER": 327.3715, "MEAN_ANOMALY": 32.382, "EPHEMERIS_TYPE": 0, "CLASSIFICATION_TYPE": "U", "NORAD_CAT_ID": 34815, "ELEMENT_SET_NO": 999, "REV_AT_EPOCH": 88516, "BSTAR": 0.0020835561, "MEAN_MOTION_DOT": 0.00015533, "MEAN_MOTION_DDOT": 0}, "tle": {"line1": "1 34815U 93036ABE 25339.20170524  .00015533  00000+0  20836-2 0  9992", "line2": "2 34815  74.0462 256.5989 0058986 327.3715  32.3820 14.78146194885165"}}, "geometry": {"type": "Point", "coordinates": [94.99006486204445, -49.45914001469747]}}, {"type": "Feature", "properties": {"norad_id": 34816, "name": "COSMOS 2251 DEB", "group": "cosmos-2251-debris", "lat": -49.612982754005195, "lon": 134.60140817260202, "alt_km": 1025.9039692357428, "timestamp": "2025-12-05T18:53:13.676935+00:00", "meta": {"OBJECT_NAME": "COSMOS 2251 DEB", "OBJECT_ID": "1993-036ABF", "EPOCH": "2025-12-04T06:55:01.795872", "MEAN_MOTION": 13.5828868, "ECCENTRICITY": 0.037371, "INCLINATION": 73.8862, "RA_OF_ASC_NODE": 156.9114, "ARG_OF_PERICENTER": 222.8428, "MEAN_ANOMALY": 314.5615, "EPHEMERIS_TYPE": 0, "CLASSIFICATION_TYPE": "U", "NORAD_CAT_ID": 34816, "ELEMENT_SET_NO": 999, "REV_AT_EPOCH": 82668, "BSTAR": 0.0017556, "MEAN_MOTION_DOT": 1.988e-05, "MEAN_MOTION_DDOT": 0}, "tle": {"line1": "1 34816U 93036ABF 25338.28821523  .00001988  00000+0  17556-2 0  9996", "line2": "2 34816  73.8862 156.9114 0373710 222.8428 314.5615 13.58288680826688"}}, "geometry": {"type": "Point", "coordinates": [134.60140817260202, -49.612982754005195]}}, {"type": "Feature", "properties": {"norad_id": 34818, "name": "COSMOS 2251 DEB", "group": "cosmos-2251-debris", "lat": 70.3772335896323, "lon": 76.31672195809895, "alt_km": 756.7686112943857, "timestamp": "2025-12-05T18:53:13.676946+00:00", "meta": {"OBJECT_NAME": "COSMOS 2251 DEB", "OBJECT_ID": "1993-036ABH", "EPOCH": "2025-12-02T23:50:56.245056", "MEAN_MOTION": 14.36946659, "ECCENTRICITY": 0.0023728, "INCLINATION": 74.0353, "RA_OF_ASC_NODE": 314.8598, "ARG_OF_PERICENTER": 33.1199, "MEAN_ANOMALY": 24.3839, "EPHEMERIS_TYPE": 0, "CLASSIFICATION_TYPE": "U", "NORAD_CAT_ID": 34818, "ELEMENT_SET_NO": 999, "REV_AT_EPOCH": 87230, "BSTAR": 0.00041955, "MEAN_MOTION_DOT": 1.22e-05, "MEAN_MOTION_DDOT": 0}, "tle": {"line1": "1 34818U 93036ABH 25336.99370654  .00001220  00000+0  41955-3 0  9998", "line2": "2 34818  74.0353 314.8598 0023728  33.1199  24.3839 14.36946659872306"}}, "geometry": {"type": "Point", "coordinates": [76.31672195809895, 70.3772335896323]}}]}